{
    "links": {
        "self": "http://www.neowsapp.com/rest/v1/neo/3521853?api_key=iIulBulltgU6a56xZRHN4H3l9WmuAYTsLGpBGhQ2"
    },
    "id": "3521853",
    "neo_reference_id": "3521853",
    "name": "(2010 JG80)",
    "designation": "2010 JG80",
    "nasa_jpl_url": "http://ssd.jpl.nasa.gov/sbdb.cgi?sstr=3521853",
    "absolute_magnitude_h": 24.0,
    "estimated_diameter": {
        "kilometers": {
            "estimated_diameter_min": 0.0421264611,
            "estimated_diameter_max": 0.0941976306
        },
        "meters": {
            "estimated_diameter_min": 42.1264610556,
            "estimated_diameter_max": 94.1976305719
        },
        "miles": {
            "estimated_diameter_min": 0.0261761612,
            "estimated_diameter_max": 0.0585316759
        },
        "feet": {
            "estimated_diameter_min": 138.2101784897,
            "estimated_diameter_max": 309.0473542854
        }
    },
    "is_potentially_hazardous_asteroid": false,
    "close_approach_data": [
        {
            "close_approach_date": "2010-05-05",
            "close_approach_date_full": "2010-May-05 21:23",
            "epoch_date_close_approach": 1273094580000,
            "relative_velocity": {
                "kilometers_per_second": "12.9499945749",
                "kilometers_per_hour": "46619.9804696598",
                "miles_per_hour": "28967.8428646061"
            },
            "miss_distance": {
                "astronomical": "0.122893663",
                "lunar": "47.805634907",
                "kilometers": "18384630.22129781",
                "miles": "11423679.496457378"
            },
            "orbiting_body": "Earth"
        }
    ],
    "orbital_data": {
        "orbit_id": "8",
        "orbit_determination_date": "2017-04-06 08:59:01",
        "first_observation_date": "2010-05-13",
        "last_observation_date": "2010-05-19",
        "data_arc_in_days": 6,
        "observations_used": 21,
        "orbit_uncertainty": "9",
        "minimum_orbit_intersection": ".114819",
        "jupiter_tisserand_invariant": "4.738",
        "epoch_osculation": "2455330.5",
        "eccentricity": ".1744150127176602",
        "semi_major_axis": "1.360691929989333",
        "inclination": "24.83704840249556",
        "ascending_node_longitude": "224.2858604164541",
        "orbital_period": "579.7465067457237",
        "perihelion_distance": "1.123366829715426",
        "perihelion_argument": "359.62526782",
        "aphelion_distance": "1.59801703026324",
        "perihelion_time": "2455323.737639290674",
        "mean_anomaly": "4.199162611643139",
        "mean_motion": ".6209610507543699",
        "equinox": "J2000",
        "orbit_class": {
            "orbit_class_type": "AMO",
            "orbit_class_description": "Near-Earth asteroid orbits similar to that of 1221 Amor",
            "orbit_class_range": "1.017 AU < q (perihelion) < 1.3 AU"
        }
    },
    "is_sentry_object": false
}